#aV2009 11 11  0  0   .00000000      96 DD+AD WGS84 FIT  NGA
## 1557 259200.00000000   900.00000000 55146  .0000000000000
+   31     1  2  3  4  5  6  7  9 10 11 12 13 14 15 16 17 18
+         19 20 21 22 23 24 25 26 27 28 29 30 31 32  0  0  0
+          0  0  0  0  0  0  0  0  0  0  0  0  0  0  0  0  0
+          0  0  0  0  0  0  0  0  0  0  0  0  0  0  0  0  0
+          0  0  0  0  0  0  0  0  0  0  0  0  0  0  0  0  0
++         0  0  0  0  0  0  0  0  0  0  0  0  0  0  0  0  0
++         0  0  0  0  0  0  0  0  0  0  0  0  0  0  0  0  0
++         0  0  0  0  0  0  0  0  0  0  0  0  0  0  0  0  0
++         0  0  0  0  0  0  0  0  0  0  0  0  0  0  0  0  0
++         0  0  0  0  0  0  0  0  0  0  0  0  0  0  0  0  0
%c cc cc ccc ccc cccc cccc cccc cccc ccccc ccccc ccccc ccccc
%c cc cc ccc ccc cccc cccc cccc cccc ccccc ccccc ccccc ccccc
%f  0.0000000  0.000000000  0.00000000000  0.000000000000000
%f  0.0000000  0.000000000  0.00000000000  0.000000000000000
%i    0    0    0    0      0      0      0      0         0
%i    0    0    0    0      0      0      0      0         0
/*      NGA, ST. LOUIS,MO.                                  
/*   EPHEMERIS COMPUTED FROM  3 DAYS OF DATA                
/* CCCCCCCCCCCCCCCCCCCCCCCCCCCCCCCCCCCCCCCCCCCCCCCCCCCCCCCCC
/* CCCCCCCCCCCCCCCCCCCCCCCCCCCCCCCCCCCCCCCCCCCCCCCCCCCCCCCCC
*  2009 11 11 18 30   .00000000                                                 
P  1 -18838.559732  15353.039342  10490.258465    -64.537017                    
V  1   5304.693551 -12675.198329  27905.626755      -.020428                    
P  2 -13419.399462 -23121.253750  -1913.643552    190.564688                    
V  2   1660.599714  -3464.812915  30906.931719       .042765                    
P  3  18144.901679  11318.056806 -16309.602659    473.206706                    
V  3 -19903.851265   3270.526033 -19956.169056       .052665                    
P  4  -4953.988279 -24380.219045   8596.959961   -354.368473                    
V  4   8115.477139   8578.859166  28857.807950      -.181632                    
P  5  -9405.124780 -12765.730068 -21307.863687    -46.477011                    
V  5  15428.777951 -22217.110152   6578.903191       .070501                    
P  6  14595.546579  13291.024735 -17636.699085    260.509480                    
V  6 -22831.489414   1671.800816 -17360.120228       .022072                    
P  7  11954.351228  -9470.816992 -21743.436960      7.902426                    
V  7  12520.677873  24563.516414  -3969.041182      -.007048                    
P  9 -17793.026075  -9708.588303  16532.141293     87.947343                    
V  9  -9020.207459 -20354.598606 -20794.498420       .021417                    
P 10  -6552.025401 -15769.716025 -20416.914519    -28.050509                    
V 10  15686.342398 -20353.653593  11111.280191      -.009843                    
P 11  20484.235762   4205.129246  16328.136135    -28.689072                    
V 11  11183.408846  18375.745683 -18122.471205      -.019418                    
P 12 -17710.992657   2007.429461  19702.021465   -191.491099                    
V 12  12989.278316 -21300.354717  14005.584558       .053134                    
P 13  21439.315817  -6654.037250 -14332.675286    306.182080                    
V 13  17609.551731   3568.051548  24884.196271       .002101                    
P 14  -5824.854255  13954.186466  21959.357751    -25.781786                    
V 14 -27296.782705  -3294.758023  -5302.734090       .048439                    
P 15 -23573.465892  -7862.517181  -9465.705302   -320.193035                    
V 15  12159.807259  -2047.521341 -28407.674591       .003458                    
P 16   2627.665551  18547.842366 -18682.531105     -7.398271                    
V 16 -14916.575135  18708.454204  16676.448097      -.041443                    
P 17   5005.443719 -14745.681712  21570.583615    101.395876                    
V 17  27104.743833   2783.378213  -4600.751611       .035436                    
P 18 -17498.620386  19134.660672  -4487.595632     26.902207                    
V 18    441.587386  -7139.040595 -30826.198344       .027555                    
P 19  24180.591291   8614.035813  -7326.157357      1.784545                    
V 19  -9552.711413   1223.808606 -29656.123740      -.019518                    
P 20  19067.508869  -7184.984669  16885.134454     67.854881                    
V 20  -9697.624543  19608.652282  19203.713338      -.008651                    
P 21  -9852.569854  13789.245307 -20019.349914    -20.760985                    
V 21 -12675.213333 -23120.494437 -10172.120003      -.023282                    
P 22 -10426.916320  23419.577451   6957.502123    186.599980                    
V 22  -7794.194369   5088.746253 -29589.506813      -.008503                    
P 23  26625.926025    294.215559  -2341.539689    386.175101                    
V 23   2740.123968   2480.988640  31558.487618      -.005448                    
P 24 -16448.357900   -799.820093 -20676.864473    235.778342                    
V 24  -9641.409243 -24816.510969   8831.134499       .030315                    
P 25  15055.052885  -3245.943360 -21270.881099     13.677822                    
V 25  14064.089400  24011.533908   6371.185668       .171057                    
P 26 -15580.062100  10271.713538  18553.130371      4.062373                    
V 26 -24151.435464  -3909.550098 -17154.180241      -.018797                    
P 27 -18666.427998 -12214.418961  15144.272822     99.026642                    
V 27  -7571.041181 -16364.788034 -23571.545580       .031776                    
P 28  12128.476396 -22979.615419   5058.104483    -25.464393                    
V 28   5656.454637  -3226.718210 -31256.148163       .002519                    
P 29 -23451.800283   5571.407328 -11015.025451     73.485134                    
V 29 -13847.785453  -3809.593084  27372.940742       .029415                    
P 30 -18601.162340  14329.442329  11968.884498    192.423794                    
V 30   5908.096715 -14941.457395  26285.848712       .030904                    
P 31   6805.734103  24647.234820   7108.855188    -61.293526                    
V 31  -5964.664835  -6829.433765  30440.241107       .007882                    
P 32  16521.215115   2700.176761  20931.434901    159.953099                    
V 32 -15348.627766  20747.282725   9907.644159      -.075712                    
EOF
